NORAD_CAT_ID,OBJECT_NAME,OBJECT_TYPE,EPOCH,MEAN_MOTION,ECCENTRICITY,INCLINATION,RA_OF_ASC_NODE,ARG_OF_PERICENTER,MEAN_ANOMALY,BSTAR,MEAN_MOTION_DOT,MEAN_MOTION_DDOT,TLE_LINE0,TLE_LINE1,TLE_LINE2,SEMIMAJOR_AXIS,PERIOD,APOGEE,PERIGEE,DECAYED
49729.0,STARLINK-3251,PAYLOAD,2024-03-24 13:33:15,15.08861521,0.0001284,53.2165,129.3231,80.8589,279.2548,0.00023697,3.488e-05,0.0,0 STARLINK-3251,1 49729U 21115F   24084.56476379  .00003488  00000-0  23697-3 0  9999,2 49729  53.2165 129.3231 0001284  80.8589 279.2548 15.08861521128543,6917.815,95.436,540.568,538.791,0.0
49729.0,STARLINK-3251,PAYLOAD,2024-03-24 19:54:48,15.08863047,0.000131,53.2157,128.1342,83.1586,276.9555,0.0003732,5.66e-05,0.0,0 STARLINK-3251,1 49729U 21115F   24084.82972761  .00005660  00000-0  37320-3 0  9996,2 49729  53.2157 128.1342 0001310  83.1586 276.9555 15.08863047128588,6917.81,95.436,540.581,538.769,0.0
49729.0,STARLINK-3251,PAYLOAD,2024-03-25 11:48:41,15.0883406,0.0001799,53.2163,125.1602,89.2778,270.842,6.1393e-06,-1.9e-06,0.0,0 STARLINK-3251,1 49729U 21115F   24085.49214486 -.00000190  00000-0  61393-5 0  9996,2 49729  53.2163 125.1602 0001799  89.2778 270.8420 15.08834060128680,6917.899,95.438,541.008,538.519,0.0
49729.0,STARLINK-3251,PAYLOAD,2024-03-25 19:45:36,15.08845969,0.000172,53.2161,123.6712,84.0383,276.0805,0.00019096,2.753e-05,0.0,0 STARLINK-3251,1 49729U 21115F   24085.82334072  .00002753  00000-0  19096-3 0  9994,2 49729  53.2161 123.6712 0001720  84.0383 276.0805 15.08845969128733,6917.862,95.437,540.917,538.537,0.0
49729.0,STARLINK-3251,PAYLOAD,2024-03-26 11:39:29,15.08816684,0.000153,53.2146,120.7005,84.7181,275.3986,0.00014764,2.061e-05,0.0,0 STARLINK-3251,1 49729U 21115F   24086.48575578  .00002061  00000-0  14764-3 0  9994,2 49729  53.2146 120.7005 0001530  84.7181 275.3986 15.08816684128836,6917.952,95.439,540.875,538.758,0.0
49729.0,STARLINK-3251,PAYLOAD,2024-03-26 19:36:25,15.08824209,0.000161,53.2151,119.2142,89.7024,270.4153,0.00049352,7.572e-05,0.0,0 STARLINK-3251,1 49729U 21115F   24086.81695987  .00007572  00000-0  49352-3 0  9991,2 49729  53.2151 119.2142 0001610  89.7024 270.4153 15.08824209127773,6917.929,95.439,540.907,538.68,0.0
49729.0,STARLINK-3251,PAYLOAD,2024-03-27 11:30:15,15.08890113,0.0002206,53.2155,116.2379,99.0441,261.0801,0.0023057,0.00036649,0.0,0 STARLINK-3251,1 49729U 21115F   24087.47934672  .00036649  00000-0  23057-2 0  9991,2 49729  53.2155 116.2379 0002206  99.0441 261.0801 15.08890113128982,6917.727,95.434,541.118,538.066,0.0
49729.0,STARLINK-3251,PAYLOAD,2024-03-27 19:27:10,15.08899288,0.0002186,53.2143,114.7483,102.7111,257.4126,0.0012145,0.00019125,0.0,0 STARLINK-3251,1 49729U 21115F   24087.81053271  .00019125  00000-0  12145-2 0  9992,2 49729  53.2143 114.7483 0002186 102.7111 257.4126 15.08899288127925,6917.699,95.434,541.076,538.052,0.0
49729.0,STARLINK-3251,PAYLOAD,2024-03-28 04:59:28,15.08847067,0.0001479,53.2146,112.9684,101.2919,258.824,-0.0010402,-0.00016808,0.0,0 STARLINK-3251,1 49729U 21115F   24088.20797283 -.00016808  00000-0 -10402-2 0  9995,2 49729  53.2146 112.9684 0001479 101.2919 258.8240 15.08847067129095,6917.859,95.437,540.747,538.701,0.0
49729.0,STARLINK-3251,PAYLOAD,2024-03-28 11:21:01,15.08843618,0.0001454,53.215,111.7791,89.9239,270.1919,-0.00058464,-9.581e-05,0.0,0 STARLINK-3251,1 49729U 21115F   24088.47293425 -.00009581  00000-0 -58464-3 0  9994,2 49729  53.2150 111.7791 0001454  89.9239 270.1919 15.08843618128026,6917.869,95.437,540.74,538.728,0.0
49729.0,STARLINK-3251,PAYLOAD,2024-03-29 08:01:03,15.08838736,0.0001495,53.2164,107.9134,91.8846,268.2317,0.00070622,0.00010969,0.0,0 STARLINK-3251,1 49729U 21115F   24089.33406357  .00010969  00000-0  70622-3 0  9990,2 49729  53.2164 107.9134 0001495  91.8846 268.2317 15.08838736129262,6917.884,95.438,540.783,538.715,0.0
49729.0,STARLINK-3251,PAYLOAD,2024-03-30 04:41:04,15.08840548,0.0001438,53.216,104.0477,92.465,267.6507,0.00031206,4.682e-05,0.0,0 STARLINK-3251,1 49729U 21115F   24090.19518537  .00004682  00000-0  31206-3 0  9990,2 49729  53.2160 104.0477 0001438  92.4650 267.6507 15.08840548129395,6917.879,95.438,540.739,538.749,0.0
49729.0,STARLINK-3251,PAYLOAD,2024-03-30 07:51:50,15.0883709,0.0001449,53.2163,103.4531,92.5547,267.5611,0.0002437,3.592e-05,0.0,0 STARLINK-3251,1 49729U 21115F   24090.32766738  .00003592  00000-0  24370-3 0  9996,2 49729  53.2163 103.4531 0001449  92.5547 267.5611 15.08837090128303,6917.889,95.438,540.757,538.752,0.0
49729.0,STARLINK-3251,PAYLOAD,2024-03-30 17:24:09,15.0883509,0.0001359,53.2158,101.669,91.8742,268.2406,0.00010886,1.445e-05,0.0,0 STARLINK-3251,1 49729U 21115F   24090.72510863  .00001445  00000-0  10886-3 0  9998,2 49729  53.2158 101.6690 0001359  91.8742 268.2406 15.08835090129479,6917.895,95.438,540.701,538.82,0.0
49729.0,STARLINK-3251,PAYLOAD,2024-03-31 10:53:23,15.08847749,0.000134,53.2159,98.3983,92.0416,268.073,0.00024959,3.687e-05,0.0,0 STARLINK-3251,1 49729U 21115F   24091.45374508  .00003687  00000-0  24959-3 0  9999,2 49729  53.2159  98.3983 0001340  92.0416 268.0730 15.08847749129582,6917.857,95.437,540.649,538.795,0.0
49729.0,STARLINK-3251,PAYLOAD,2024-03-31 17:14:55,15.0885032,0.0001368,53.2165,97.2092,91.5744,268.5405,0.00025778,3.818e-05,0.0,0 STARLINK-3251,1 49729U 21115F   24091.71870222  .00003818  00000-0  25778-3 0  9998,2 49729  53.2165  97.2092 0001368  91.5744 268.5405 15.08850320128511,6917.849,95.437,540.66,538.767,0.0
49729.0,STARLINK-3251,PAYLOAD,2024-04-01 09:08:48,15.08832075,0.0001519,53.2163,94.2358,85.5215,274.595,2.4749e-06,-2.49e-06,0.0,0 STARLINK-3251,1 49729U 21115F   24092.38111379 -.00000249  00000-0  24749-5 0  9998,2 49729  53.2163  94.2358 0001519  85.5215 274.5950 15.08832075129728,6917.905,95.438,540.82,538.719,0.0
49729.0,STARLINK-3251,PAYLOAD,2024-04-01 23:27:16,15.08841533,0.0001471,53.2162,91.5597,88.1411,271.9749,0.00023049,3.382e-05,0.0,0 STARLINK-3251,1 49729U 21115F   24092.97727276  .00003382  00000-0  23049-3 0  9992,2 49729  53.2162  91.5597 0001471  88.1411 271.9749 15.08841533129812,6917.876,95.437,540.758,538.723,0.0
49729.0,STARLINK-3251,PAYLOAD,2024-04-02 07:24:12,15.08848094,0.0001433,53.216,90.0734,88.1553,271.9604,0.00065692,0.00010185,0.0,0 STARLINK-3251,1 49729U 21115F   24093.30847244  .00010185  00000-0  65692-3 0  9997,2 49729  53.2160  90.0734 0001433  88.1553 271.9604 15.08848094128753,6917.856,95.437,540.712,538.729,0.0
49729.0,STARLINK-3251,PAYLOAD,2024-04-02 23:18:02,15.08862933,0.0001594,53.2162,87.0996,78.4626,281.6545,0.00072343,0.00011251,0.0,0 STARLINK-3251,1 49729U 21115F   24093.97086563  .00011251  00000-0  72343-3 0  9995,2 49729  53.2162  87.0996 0001594  78.4626 281.6545 15.08862933128853,6917.81,95.436,540.778,538.573,0.0
49729.0,STARLINK-3251,PAYLOAD,2024-04-03 05:39:35,15.08845029,0.0001454,53.2156,85.9103,80.3638,279.7518,0.00016889,2.401e-05,0.0,0 STARLINK-3251,1 49729U 21115F   24094.23582917  .00002401  00000-0  16889-3 0  9999,2 49729  53.2156  85.9103 0001454  80.3638 279.7518 15.08845029130008,6917.865,95.437,540.736,538.724,0.0
49729.0,STARLINK-3251,PAYLOAD,2024-04-03 23:08:50,15.08844193,0.0001508,53.2154,82.6396,79.6642,280.452,0.00039547,6.012e-05,0.0,0 STARLINK-3251,1 49729U 21115F   24094.96446995  .00006012  00000-0  39547-3 0  9992,2 49729  53.2154  82.6396 0001508  79.6642 280.4520 15.08844193129001,6917.868,95.437,540.776,538.689,0.0
49729.0,STARLINK-3251,PAYLOAD,2024-04-04 05:30:23,15.08830132,0.0001681,53.2165,81.4498,83.4492,276.6691,-3.841e-05,-8.99e-06,0.0,0 STARLINK-3251,1 49729U 21115F   24095.22943675 -.00000899  00000-0 -38410-4 0  9997,2 49729  53.2165  81.4498 0001681  83.4492 276.6691 15.08830132130153,6917.911,95.438,540.938,538.613,0.0
49729.0,STARLINK-3251,PAYLOAD,2024-04-04 08:41:10,15.08787579,0.0001635,53.2166,80.8546,76.4985,283.6189,-0.0010712,-0.00017271,0.0,0 STARLINK-3251,1 49729U 21115F   24095.36193153 -.00017271  00000-0 -10712-2 0  9995,2 49729  53.2166  80.8546 0001635  76.4985 283.6189 15.08787579130177,6918.041,95.441,541.037,538.775,0.0
49729.0,STARLINK-3251,PAYLOAD,2024-04-04 16:38:06,15.08815924,0.0001158,53.2167,79.3678,81.4753,278.637,6.0436e-05,6.74e-06,0.0,0 STARLINK-3251,1 49729U 21115F   24095.69313029  .00000674  00000-0  60436-4 0  9994,2 49729  53.2167  79.3678 0001158  81.4753 278.6370 15.08815924130224,6917.954,95.439,540.62,539.018,0.0
49729.0,STARLINK-3251,PAYLOAD,2024-04-05 05:21:11,15.08841106,0.000117,53.2146,76.9876,74.6053,285.5069,0.00092957,0.00014538,0.0,0 STARLINK-3251,1 49729U 21115F   24096.22305170  .00014538  00000-0  92957-3 0  9998,2 49729  53.2146  76.9876 0001170  74.6053 285.5069 15.08841106130307,6917.877,95.437,540.551,538.933,0.0
49729.0,STARLINK-3251,PAYLOAD,2024-04-05 22:50:25,15.08867099,0.0001179,53.2141,73.7152,74.2148,285.8974,0.0010846,0.00017028,0.0,0 STARLINK-3251,1 49729U 21115F   24096.95168599  .00017028  00000-0  10846-2 0  9993,2 49729  53.2141  73.7152 0001179  74.2148 285.8974 15.08867099129309,6917.798,95.436,540.478,538.847,0.0
49729.0,STARLINK-3251,PAYLOAD,2024-04-06 08:22:43,15.08881085,0.0001244,53.2147,71.931,76.4846,283.6285,0.0011033,0.00017334,0.0,0 STARLINK-3251,1 49729U 21115F   24097.34911662  .00017334  00000-0  11033-2 0  9993,2 49729  53.2147  71.9310 0001244  76.4846 283.6285 15.08881085130475,6917.755,95.435,540.48,538.759,0.0
49729.0,STARLINK-3251,PAYLOAD,2024-04-06 14:44:15,15.08892563,0.0001252,53.215,70.7414,77.6638,282.4494,0.001211,0.00019065,0.0,0 STARLINK-3251,1 49729U 21115F   24097.61406786  .00019065  00000-0  12110-2 0  9999,2 49729  53.2150  70.7414 0001252  77.6638 282.4494 15.08892563129405,6917.72,95.434,540.451,538.719,0.0
49729.0,STARLINK-3251,PAYLOAD,2024-04-06 22:41:11,15.0888545,0.0004428,53.2159,69.2562,81.1562,278.9932,0.00097578,0.00015297,0.0,0 STARLINK-3251,1 49729U 21115F   24097.94527355  .00015297  00000-0  97578-3 0  9996,2 49729  53.2159  69.2562 0004428  81.1562 278.9932 15.08885450129454,6917.741,95.435,542.67,536.543,0.0
